start=new Date('2022-06-01T00:00:00.000Z').valueOf();
sats=[{"PERIAPSIS":"546.005","FILE":"3474118","BSTAR":"0.00006619600000","ECCENTRICITY":"0.00017600","NORAD_CAT_ID":"46782","SITE":"AFETR","RCS_SIZE":"LARGE","EPOCH":"2022-05-31T03:09:53.429760","PERIOD":"95.592","REF_FRAME":"TEME","INCLINATION":"53.0563","ELEMENT_SET_NO":"999","CENTER_NAME":"EARTH","SEMIMAJOR_AXIS":"6925.359","MEAN_MOTION_DDOT":"0.0000000000000","ARG_OF_PERICENTER":"66.1740","TLE_LINE2":"2 46782  53.0563  20.2006 0001760  66.1740 293.9433 15.06396627 89037","RA_OF_ASC_NODE":"20.2006","APOAPSIS":"548.443","OBJECT_ID":"2020-074AV","EPHEMERIS_TYPE":"0","OBJECT_TYPE":"PAYLOAD","OBJECT_NAME":"STARLINK-1835","DECAY_DATE":null,"MEAN_ELEMENT_THEORY":"SGP4","MEAN_MOTION":"15.06396627","REV_AT_EPOCH":"8903","MEAN_ANOMALY":"293.9433","MEAN_MOTION_DOT":"0.00000704","TIME_SYSTEM":"UTC","COUNTRY_CODE":"US","TLE_LINE1":"1 46782U 20074AV  22151.13186840  .00000704  00000-0  66196-4 0  9995","LAUNCH_DATE":"2020-10-24","GP_ID":"205028956","CLASSIFICATION_TYPE":"U"},{"MEAN_MOTION":"15.06409058","MEAN_ELEMENT_THEORY":"SGP4","DECAY_DATE":null,"MEAN_ANOMALY":"316.3248","REV_AT_EPOCH":"8885","EPHEMERIS_TYPE":"0","OBJECT_ID":"2020-074AW","OBJECT_TYPE":"PAYLOAD","OBJECT_NAME":"STARLINK-1851","TLE_LINE1":"1 46783U 20074AW  22151.74374033  .00004275  00000-0  30568-3 0  9996","LAUNCH_DATE":"2020-10-24","CLASSIFICATION_TYPE":"U","GP_ID":"205036611","COUNTRY_CODE":"US","TIME_SYSTEM":"UTC","MEAN_MOTION_DOT":"0.00004275","SITE":"AFETR","NORAD_CAT_ID":"46783","EPOCH":"2022-05-31T17:50:59.164512","RCS_SIZE":"LARGE","PERIOD":"95.592","FILE":"3474349","PERIAPSIS":"545.816","ECCENTRICITY":"0.00019780","BSTAR":"0.00030568000000","SEMIMAJOR_AXIS":"6925.321","MEAN_MOTION_DDOT":"0.0000000000000","APOAPSIS":"548.556","RA_OF_ASC_NODE":"17.4658","ARG_OF_PERICENTER":"43.7897","TLE_LINE2":"2 46783  53.0558  17.4658 0001978  43.7897 316.3248 15.06409058 88854","INCLINATION":"53.0558","REF_FRAME":"TEME","CENTER_NAME":"EARTH","ELEMENT_SET_NO":"999"},{"ECCENTRICITY":"0.00015410","BSTAR":"0.00027489000000","FILE":"3474118","PERIAPSIS":"546.230","RCS_SIZE":"LARGE","EPOCH":"2022-05-31T00:25:20.686656","PERIOD":"95.594","SITE":"AFETR","NORAD_CAT_ID":"46784","CENTER_NAME":"EARTH","ELEMENT_SET_NO":"999","INCLINATION":"53.0547","REF_FRAME":"TEME","RA_OF_ASC_NODE":"20.7304","APOAPSIS":"548.365","ARG_OF_PERICENTER":"77.0008","TLE_LINE2":"2 46784  53.0547  20.7304 0001541  77.0008 283.1153 15.06372553 89012","MEAN_MOTION_DDOT":"0.0000000000000","SEMIMAJOR_AXIS":"6925.433","OBJECT_NAME":"STARLINK-1882","OBJECT_TYPE":"PAYLOAD","EPHEMERIS_TYPE":"0","OBJECT_ID":"2020-074AX","REV_AT_EPOCH":"8901","MEAN_ANOMALY":"283.1153","MEAN_MOTION":"15.06372553","DECAY_DATE":null,"MEAN_ELEMENT_THEORY":"SGP4","TIME_SYSTEM":"UTC","COUNTRY_CODE":"US","MEAN_MOTION_DOT":"0.00003812","CLASSIFICATION_TYPE":"U","GP_ID":"205028459","LAUNCH_DATE":"2020-10-24","TLE_LINE1":"1 46784U 20074AX  22151.01760054  .00003812  00000-0  27489-3 0  9993"},{"COUNTRY_CODE":"US","TIME_SYSTEM":"UTC","MEAN_MOTION_DOT":"-0.00001010","LAUNCH_DATE":"2020-10-24","TLE_LINE1":"1 46785U 20074AY  22151.06921059 -.00001010  00000-0 -48965-4 0  9996","CLASSIFICATION_TYPE":"U","GP_ID":"205028709","EPHEMERIS_TYPE":"0","OBJECT_ID":"2020-074AY","OBJECT_TYPE":"PAYLOAD","OBJECT_NAME":"STARLINK-1883","MEAN_MOTION":"15.06389493","MEAN_ELEMENT_THEORY":"SGP4","DECAY_DATE":null,"REV_AT_EPOCH":"8902","MEAN_ANOMALY":"288.6941","INCLINATION":"53.0561","REF_FRAME":"TEME","CENTER_NAME":"EARTH","ELEMENT_SET_NO":"999","SEMIMAJOR_AXIS":"6925.381","MEAN_MOTION_DDOT":"0.0000000000000","APOAPSIS":"548.246","RA_OF_ASC_NODE":"20.4883","TLE_LINE2":"2 46785  53.0561  20.4883 0001444  71.4205 288.6941 15.06389493 89024","ARG_OF_PERICENTER":"71.4205","FILE":"3474118","PERIAPSIS":"546.246","ECCENTRICITY":"0.00014440","BSTAR":"-0.00004896500000","SITE":"AFETR","NORAD_CAT_ID":"46785","RCS_SIZE":"LARGE","EPOCH":"2022-05-31T01:39:39.794976","PERIOD":"95.593"},{"MEAN_MOTION_DOT":"-0.00005763","TIME_SYSTEM":"UTC","COUNTRY_CODE":"US","GP_ID":"205040634","CLASSIFICATION_TYPE":"U","LAUNCH_DATE":"2020-10-24","TLE_LINE1":"1 46786U 20074AZ  22151.84509187 -.00005763  00000-0 -36809-3 0  9999","OBJECT_NAME":"STARLINK-1893","OBJECT_TYPE":"PAYLOAD","OBJECT_ID":"2020-074AZ","EPHEMERIS_TYPE":"0","MEAN_ANOMALY":"291.2424","REV_AT_EPOCH":"8910","DECAY_DATE":null,"MEAN_ELEMENT_THEORY":"SGP4","MEAN_MOTION":"15.06422093","ELEMENT_SET_NO":"999","CENTER_NAME":"EARTH","REF_FRAME":"TEME","INCLINATION":"53.0569","TLE_LINE2":"2 46786  53.0569 357.0094 0001620  68.8738 291.2424 15.06422093 89102","ARG_OF_PERICENTER":"68.8738","RA_OF_ASC_NODE":"357.0094","APOAPSIS":"548.268","MEAN_MOTION_DDOT":"0.0000000000000","SEMIMAJOR_AXIS":"6925.281","BSTAR":"-0.00036809000000","ECCENTRICITY":"0.00016200","PERIAPSIS":"546.024","FILE":"3474505","PERIOD":"95.591","RCS_SIZE":"LARGE","EPOCH":"2022-05-31T20:16:55.937568","NORAD_CAT_ID":"46786","SITE":"AFETR"},{"ELEMENT_SET_NO":"999","CENTER_NAME":"EARTH","REF_FRAME":"TEME","INCLINATION":"53.0566","TLE_LINE2":"2 46787  53.0566 357.0295 0001663  76.2423 283.8751 15.06388145 89103","ARG_OF_PERICENTER":"76.2423","RA_OF_ASC_NODE":"357.0295","APOAPSIS":"548.402","SEMIMAJOR_AXIS":"6925.385","MEAN_MOTION_DDOT":"0.0000000000000","BSTAR":"0.00001739800000","ECCENTRICITY":"0.00016630","PERIAPSIS":"546.098","FILE":"3474524","RCS_SIZE":"LARGE","PERIOD":"95.593","EPOCH":"2022-05-31T20:06:19.766592","NORAD_CAT_ID":"46787","SITE":"AFETR","MEAN_MOTION_DOT":"-0.00000022","TIME_SYSTEM":"UTC","COUNTRY_CODE":"US","GP_ID":"205040597","CLASSIFICATION_TYPE":"U","LAUNCH_DATE":"2020-10-24","TLE_LINE1":"1 46787U 20074BA  22151.83772878 -.00000022  00000-0  17398-4 0  9993","OBJECT_TYPE":"PAYLOAD","OBJECT_NAME":"STARLINK-1899","OBJECT_ID":"2020-074BA","EPHEMERIS_TYPE":"0","REV_AT_EPOCH":"8910","MEAN_ANOMALY":"283.8751","DECAY_DATE":null,"MEAN_ELEMENT_THEORY":"SGP4","MEAN_MOTION":"15.06388145"},{"MEAN_MOTION_DOT":"-0.00003860","COUNTRY_CODE":"US","TIME_SYSTEM":"UTC","GP_ID":"205038389","CLASSIFICATION_TYPE":"U","TLE_LINE1":"1 46788U 20074BB  22151.83035440 -.00003860  00000-0 -24023-3 0  9997","LAUNCH_DATE":"2020-10-24","OBJECT_TYPE":"PAYLOAD","OBJECT_NAME":"STARLINK-1929","OBJECT_ID":"2020-074BB","EPHEMERIS_TYPE":"0","REV_AT_EPOCH":"8910","MEAN_ANOMALY":"309.6988","DECAY_DATE":null,"MEAN_ELEMENT_THEORY":"SGP4","MEAN_MOTION":"15.06415483","ELEMENT_SET_NO":"999","CENTER_NAME":"EARTH","REF_FRAME":"TEME","INCLINATION":"53.0545","TLE_LINE2":"2 46788  53.0545 357.0828 0001797  50.4159 309.6988 15.06415483 89106","ARG_OF_PERICENTER":"50.4159","RA_OF_ASC_NODE":"357.0828","APOAPSIS":"548.411","MEAN_MOTION_DDOT":"0.0000000000000","SEMIMAJOR_AXIS":"6925.301","BSTAR":"-0.00024023000000","ECCENTRICITY":"0.00017970","PERIAPSIS":"545.922","FILE":"3474404","EPOCH":"2022-05-31T19:55:42.620160","RCS_SIZE":"LARGE","PERIOD":"95.591","NORAD_CAT_ID":"46788","SITE":"AFETR"},{"MEAN_MOTION_DOT":"-0.00101367","COUNTRY_CODE":"US","TIME_SYSTEM":"UTC","GP_ID":"205038400","CLASSIFICATION_TYPE":"U","TLE_LINE1":"1 46789U 20074BC  22151.64185588 -.00101367  00000-0 -72461-2 0  9995","LAUNCH_DATE":"2020-10-24","OBJECT_NAME":"STARLINK-1930","OBJECT_TYPE":"PAYLOAD","OBJECT_ID":"2020-074BC","EPHEMERIS_TYPE":"0","REV_AT_EPOCH":"8865","MEAN_ANOMALY":"297.0309","DECAY_DATE":null,"MEAN_ELEMENT_THEORY":"SGP4","MEAN_MOTION":"15.04493066","ELEMENT_SET_NO":"999","CENTER_NAME":"EARTH","REF_FRAME":"TEME","INCLINATION":"53.0560","TLE_LINE2":"2 46789  53.0560  27.9513 0002680  63.0952 297.0309 15.04493066 88658","ARG_OF_PERICENTER":"63.0952","RA_OF_ASC_NODE":"27.9513","APOAPSIS":"554.922","MEAN_MOTION_DDOT":"0.0000000000000","SEMIMAJOR_AXIS":"6931.199","BSTAR":"-0.00724610000000","ECCENTRICITY":"0.00026800","PERIAPSIS":"551.207","FILE":"3474405","RCS_SIZE":"LARGE","EPOCH":"2022-05-31T15:24:16.348032","PERIOD":"95.713","NORAD_CAT_ID":"46789","SITE":"AFETR"},{"CLASSIFICATION_TYPE":"U","GP_ID":"205038404","LAUNCH_DATE":"2020-10-24","TLE_LINE1":"1 46790U 20074BD  22151.68384345  .00004027  00000-0  28919-3 0  9996","COUNTRY_CODE":"US","TIME_SYSTEM":"UTC","MEAN_MOTION_DOT":"0.00004027","MEAN_ANOMALY":"287.2071","REV_AT_EPOCH":"8865","MEAN_MOTION":"15.06390654","DECAY_DATE":null,"MEAN_ELEMENT_THEORY":"SGP4","OBJECT_TYPE":"PAYLOAD","OBJECT_NAME":"STARLINK-1931","EPHEMERIS_TYPE":"0","OBJECT_ID":"2020-074BD","RA_OF_ASC_NODE":"27.7372","APOAPSIS":"548.377","TLE_LINE2":"2 46790  53.0568  27.7372 0001639  72.9097 287.2071 15.06390654 88659","ARG_OF_PERICENTER":"72.9097","MEAN_MOTION_DDOT":"0.0000000000000","SEMIMAJOR_AXIS":"6925.377","CENTER_NAME":"EARTH","ELEMENT_SET_NO":"999","INCLINATION":"53.0568","REF_FRAME":"TEME","RCS_SIZE":"LARGE","PERIOD":"95.593","EPOCH":"2022-05-31T16:24:44.074080","SITE":"AFETR","NORAD_CAT_ID":"46790","ECCENTRICITY":"0.00016390","BSTAR":"0.00028919000000","FILE":"3474405","PERIAPSIS":"546.107"},{"MEAN_MOTION_DOT":"0.00000847","TIME_SYSTEM":"UTC","COUNTRY_CODE":"US","GP_ID":"205029706","CLASSIFICATION_TYPE":"U","LAUNCH_DATE":"2020-10-24","TLE_LINE1":"1 46791U 20074BE  22151.10145758  .00000847  00000-0  75766-4 0  9996","OBJECT_TYPE":"PAYLOAD","OBJECT_NAME":"STARLINK-1933","OBJECT_ID":"2020-074BE","EPHEMERIS_TYPE":"0","REV_AT_EPOCH":"8889","MEAN_ANOMALY":"303.4924","MEAN_ELEMENT_THEORY":"SGP4","DECAY_DATE":null,"MEAN_MOTION":"15.06404715","ELEMENT_SET_NO":"999","CENTER_NAME":"EARTH","REF_FRAME":"TEME","INCLINATION":"53.0579","ARG_OF_PERICENTER":"56.6243","TLE_LINE2":"2 46791  53.0579  30.3331 0001865  56.6243 303.4924 15.06404715 88898","APOAPSIS":"548.491","RA_OF_ASC_NODE":"30.3331","MEAN_MOTION_DDOT":"0.0000000000000","SEMIMAJOR_AXIS":"6925.334","BSTAR":"0.00007576600000","ECCENTRICITY":"0.00018650","PERIAPSIS":"545.908","FILE":"3474118","PERIOD":"95.592","RCS_SIZE":"LARGE","EPOCH":"2022-05-31T02:26:05.934912","NORAD_CAT_ID":"46791","SITE":"AFETR"}];
